ASTROCAST-0402          
1 55109U 23001DE  26068.80661100  .00010930  00000+0  41835-3 0  9996
2 55109  97.5556 160.6821 0004209 216.6984 143.3966 15.26734153129364
STARLINK-30287          
1 57709U 23129M   26068.15419765  .00000451  00000+0  26509-4 0  9990
2 57709  43.0029 120.6792 0001809 270.9354  89.1290 15.26742719140607
